#dP2025  2  6 12  0  0.00000000      96 __u+U IGS20 EXT  IAC
## 2352 388800.00000000   900.00000000 60712 0.5000000000000
+   52   G01G02G03G04G05G06G07G08G09G10G11G12G13G14G15G16G17
+        G18G19G20G21G22G23G24G25G26G27G29G30G31G32R01R02R03
+        R04R05R07R08R09R11R12R14R15R16R17R18R19R20R21R22R24
+        R26  0  0  0  0  0  0  0  0  0  0  0  0  0  0  0  0
+          0  0  0  0  0  0  0  0  0  0  0  0  0  0  0  0  0
++         7  7  8  7  9  8  7  7  7  7  7  8  8  8  8  7  7
++         8  7  8  6  7  6  7  8  6  7  8  6  7  7  8  7  7
++         9  9  8 10  8  8  7  9 10  9 11  9  9 10  8  8  8
++         9  0  0  0  0  0  0  0  0  0  0  0  0  0  0  0  0
++         0  0  0  0  0  0  0  0  0  0  0  0  0  0  0  0  0
%c M  cc GPS ccc cccc cccc cccc cccc ccccc ccccc ccccc ccccc
%c cc cc ccc ccc cccc cccc cccc cccc ccccc ccccc ccccc ccccc
%f  0.0000000  0.000000000  0.00000000000  0.000000000000000
%f  0.0000000  0.000000000  0.00000000000  0.000000000000000
%i    0    0    0    0      0      0      0      0         0
%i    0    0    0    0      0      0      0      0         0
/* IAC                                ULTRA-RAPID PREDICTION
/* S/V CLOCKS ARE ALIGNED TO GNSS TIME                      
/* G:C1WC2W R:C1PC2P E:C1XC5X C:C2IC6I J:C1CC2S             
/* PCV:IGS20_2350 OL/AL:FES2004  NONE     YN ORB:CoN CLK:CoN
*  2025 02 07  7  0  0.00000000
PG01 -15413.562386  18896.389150  10519.010964    104.845157
PG02 -13895.627842  17681.681544  14259.799858   -249.005016
PG03 -20695.893247  12231.336727 -11323.923991    659.597431
PG04  -9681.101359  11725.161673 -21745.277014    523.583012
PG05  25938.219091  -5232.046135  -2869.816614   -201.257341
PG06   8406.531649  15696.007583 -19594.215691   -171.282606
PG07  -5500.556860  25599.164295   3171.424463    -13.604089
PG08 -17932.045879   1861.270490  19510.487032    475.762122
PG09   -230.414424  18688.611533 -18936.956200    558.061626
PG10 -11747.493109 -11635.188220  21100.022753   -308.576859
PG11  14524.013817   4147.446136 -21804.058087   -748.571911
PG12  22633.820097 -10317.806809  -9545.987751   -568.841077
PG13  19231.322978   8558.874232  16110.627338    695.768898
PG14   7820.155499  14069.457153  21204.709885    594.159676
PG15  17111.399438  -4603.470413  19305.503847    260.628784
PG16 -25667.309374  -1938.538520  -7797.685135    -58.980326
PG17  11326.630163  22616.158926   8138.941404    437.642385
PG18   4855.888723 -25522.581850   4934.443274   -654.389613
PG19  17413.880086  20234.058454  -2532.080614    595.211323
PG20  22176.219043   1481.134416 -14361.074771    366.485843
PG21 -15536.938614  10427.319055  18740.437073    101.859380
PG22  14983.096765  11403.289960  18988.499704    -95.943731
PG23   4359.920519 -15603.525231  21042.902086    418.872676
PG24  14254.382677 -16342.946895  14594.623324   -455.032719
PG25  11461.927091 -16141.284372 -17945.325049    495.433099
PG26 -20150.587900  -6422.667548 -16484.083442    -80.573429
PG27 -21357.349350  -9716.410450  12541.506330    -31.899031
PG29   1924.676453 -18512.144002 -18948.562768   -540.027663
PG30   3252.148680  22767.741831  13206.768104   -221.773207
PG31 -13074.161590  -8978.695081 -21510.107968   -216.092305
PG32 -16410.259023 -20780.819602   3433.416733   -526.655450
PR01 -18460.173558 -14179.278124  10423.516056    113.894086
PR02 -23086.991238  -8630.453719  -6655.320972    -37.653526
PR03 -14976.348809   3030.791793 -20392.080693    116.365103
PR04   1013.890196  12152.796519 -22367.489297    276.106267
PR05  16356.886718  15106.215175 -12409.494109    144.961431
PR07  14657.792842  -3304.529593  20643.139828    100.322215
PR08  -1383.205712 -12397.976815  22321.027814     -6.201120
PR09  19332.282828  -3688.643361  16291.358827    236.539218
PR11  12928.616107 -16729.161771 -14278.619811     -7.085765
PR12  -5605.829653  -9519.064057 -22974.639054     50.500276
PR14 -21343.357598  13934.978539   -640.829247     27.704878
PR15 -11439.518366  16546.801590  15691.537425     71.434926
PR16   5439.066959   9458.918874  23057.783813     33.117574
PR17  -8442.083582  13816.344181  19733.885282    164.030819
PR18  -2292.867393  24449.505296   6818.000703    185.794225
PR19   3583.703017  23971.180137  -7945.959374    -39.780105
PR20  10038.716007   6794.583928 -22424.745563   -125.532641
PR21   8871.341966 -12359.532074 -20464.835558   -174.695768
PR22   2259.790923 -24827.252679  -5411.861753    -59.524158
PR24 -10887.199160  -5762.910485  22353.828435    -91.445674
PR26    682.585523 -11529.540768  22765.275882   -131.018173
*  2025 02 07  7 15  0.00000000
PG01 -15165.736954  17560.521132  12921.856971    104.867898
PG02 -13773.353656  15984.839671  16335.065017   -248.996566
PG03 -21826.665084  12352.985032  -8723.423757    659.602579
PG04 -11384.757736   9899.639353 -21840.967786    523.588057
PG05  25552.716298  -4895.860234  -5694.027823   -201.258255
PG06   7704.797886  17747.519649 -18067.204038   -171.305387
PG07  -5844.407064  25654.993335    318.912963    -13.604385
PG08 -19437.981028    292.918821  18157.402861    475.768340
PG09  -1914.059181  17232.484693 -20192.983750    558.074278
PG10  -9436.088424 -12265.656386  21868.900308   -308.590630
PG11  13754.250885   6523.813125 -21726.750919   -748.570056
PG12  23568.198812 -10256.814167  -6899.744562   -568.842973
PG13  20152.132520  10056.305944  14036.994531    695.769942
PG14   5456.094699  14666.217794  21516.763272    594.165831
PG15  18828.648375  -3162.335678  17999.961129    260.632769
PG16 -24733.001258  -2299.279630 -10370.436744    -58.972079
PG17  10473.826098  21989.265900  10734.550988    437.625739
PG18   5190.094624 -25841.162326   2075.975993   -654.387762
PG19  17319.740046  20452.611766    301.234021    595.215257
PG20  20650.262802   2414.800494 -16368.516505    366.485601
PG21 -15324.032425   8244.259865  20083.369743    101.859162
PG22  12851.940233  11888.142806  20263.864576    -95.945213
PG23   6626.294639 -16180.436686  19966.204098    418.879242
PG24  14202.150664 -14448.273238  16498.236135   -455.028465
PG25  13342.423582 -16486.986086 -16187.687119    495.432477
PG26 -18382.808563  -7247.196991 -18110.373884    -80.588264
PG27 -22160.111370 -10792.676915  10134.555072    -31.898469
PG29   3457.005562 -16883.321106 -20223.739720   -540.024431
PG30   2622.837438  24017.690948  10877.739902   -221.765405
PG31 -12326.100583 -11238.905975 -20840.382113   -216.091499
PG32 -15883.171449 -20571.603570   6213.990628   -526.648579
PR01 -17176.010463 -13479.746663  13183.801610    113.895251
PR02 -23734.040639  -8747.257664  -3512.984090    -37.652989
PR03 -17206.634860   2082.707552 -18689.133678    116.365654
PR04  -1499.398162  10898.153072 -22978.728270    276.108011
PR05  14896.605501  14229.311961 -15010.884543    144.961915
PR07  16899.552668  -2342.358217  18987.139301    100.322843
PR08   1114.626809 -11179.538480  22968.958499     -6.201009
PR09  17591.812756  -2458.473015  18358.895583    236.541006
PR11  14161.144168 -17754.620575 -11627.487104     -7.088902
PR12  -3306.591283 -11153.208683 -22682.726694     50.500657
PR14 -21052.877898  13866.046310  -3823.661460     27.704844
PR15 -12838.642283  17652.921166  13204.512317     71.434614
PR16   3140.516333  11103.644723  22747.088396     33.118028
PR17  -8553.605931  11290.908738  21233.102775    164.033498
PR18  -2175.955184  23411.591451   9841.845234    185.795842
PR19   3818.058257  24753.571556  -4827.178613    -39.781371
PR20  10194.879829   9499.552094 -21342.447481   -125.533120
PR21   8972.601300  -9749.019833 -21789.431374   -174.698864
PR22   2160.229712 -23961.586216  -8471.738764    -59.525442
PR24 -11154.617286  -8442.214739  21346.299228    -91.447162
PR26   3238.963198 -10322.859073  23123.522579   -131.017830
EOF
